SPACEBEENZ-2            
1 46957U 20085AE  21209.62625592  .00005135  00000-0  22133-3 0  9995
2 46957  97.3968 345.6689 0016341 136.0437 224.2052 15.22887361 38062
SPACEBEE-39             
1 46958U 20085AF  21209.62741585  .00007384  00000-0  30954-3 0  9995
2 46958  97.3942 345.7769 0016042 137.2524 222.9960 15.23684487 37419
SPACEBEENZ-1            
1 46959U 20085AG  21209.61823641  .00005313  00000-0  22825-3 0  9997
2 46959  97.3971 345.6840 0016855 138.0492 222.2032 15.22973345 37580
SPACEBEE-23             
1 46960U 20085AH  21209.65297035  .00008166  00000-0  34615-3 0  9994
2 46960  97.3916 345.5724 0015177 149.0886 211.1155 15.23286920 37238
SENTINEL-6              
1 46984U 20086A   21209.42582978 -.00000061  00000-0  00000+0 0  9993
2 46984  66.0408 242.0469 0008201 263.1771  96.8319 12.80930671 31863
STARLINK-1777           
1 47122U 20088A   21209.20463891  .00001910  00000-0  14705-3 0  9992
2 47122  53.0554 308.0651 0000909 144.1896 215.9154 15.06396933 37792
STARLINK-1779           
1 47123U 20088B   21208.62075008  .00471097  00000-0  16977-2 0  9996
2 47123  53.0531 292.1365 0008100 278.1118  81.8986 15.86908521 38265
STARLINK-1785           
1 47124U 20088C   21209.45570682  .00000224  00000-0  33925-4 0  9991
2 47124  53.0561 311.9388 0001398 117.5949 242.5182 15.06392847 37762
STARLINK-1787           
1 47125U 20088D   21209.45322141  .00506160  00000-0  53389-2 0  9991
2 47125  53.0498 238.8135 0007934 275.5730  84.4378 15.62042827 38790
STARLINK-1812           
1 47126U 20088E   21209.29676345 -.00002810  00000-0 -16976-3 0  9999
2 47126  53.0565 307.6438 0001001 122.7271 237.3815 15.06413786 37810
STARLINK-1836           
1 47127U 20088F   21209.34551341  .00003762  00000-0  95850-4 0  9998
2 47127  53.0536 261.9124 0004878 319.2223  40.8416 15.42172821 38466
STARLINK-1837           
1 47128U 20088G   21209.45341406 -.00001151  00000-0 -58235-4 0  9998
2 47128  53.0496 286.9424 0006223 224.1514 135.8979 15.06390441 38116
STARLINK-1838           
1 47129U 20088H   21209.21660511 -.00000933  00000-0 -43802-4 0  9995
2 47129  53.0547 298.0073 0001008  98.5027 261.6076 15.06387615 37941
STARLINK-1839           
1 47130U 20088J   21209.46539697  .00001443  00000-0  11571-3 0  9996
2 47130  53.0547 316.8865 0001131 129.3877 230.7212 15.06402213 37697
STARLINK-1840           
1 47131U 20088K   21209.22223725  .00000424  00000-0  36353-4 0  9997
2 47131  53.0555 283.0326 0006660 330.9012  29.1610 15.17673561 38159
STARLINK-1843           
1 47133U 20088M   21208.54576221 -.00001157  00000-0 -58774-4 0  9992
2 47133  53.0565 301.1523 0002374  67.0066 293.1173 15.06386921 37838
STARLINK-1844           
1 47134U 20088N   21209.24886029 -.00001143  00000-0 -57686-4 0  9997
2 47134  53.0568 307.8589 0006751 169.8148 190.2979 15.06387159 37804
STARLINK-1845           
1 47135U 20088P   21209.46725695 -.00000048  00000-0  15688-4 0  9991
2 47135  53.0542 296.8654 0001212 116.6661 243.4452 15.06389857 37976
STARLINK-1846           
1 47136U 20088Q   21209.46631841  .00001546  00000-0  12265-3 0  9991
2 47136  53.0541 306.8914 0001025 112.8051 247.3047 15.06401734 37837
STARLINK-1849           
1 47137U 20088R   21208.51996069  .00001599  00000-0  12624-3 0  9990
2 47137  53.0567 301.1245 0001116 112.3854 247.7253 15.06394602 37836
STARLINK-1850           
1 47138U 20088S   21208.55357397  .00003120  00000-0  22824-3 0  9995
2 47138  53.0534 305.9759 0001228 121.4228 238.6881 15.06397507 38073
STARLINK-1852           
1 47139U 20088T   21209.07973447  .00000944  00000-0  82242-4 0  9996
2 47139  53.0561 313.6116 0001216 118.2346 241.8766 15.06392512 37707
STARLINK-1853           
1 47140U 20088U   21209.20849377  .00345808  00000-0  97874-2 0  9993
2 47140  53.0533 306.3049 0001626  92.5487 267.5700 15.34383078 37821
STARLINK-1854           
1 47141U 20088V   21209.23040504 -.00000509  00000-0 -15261-4 0  9992
2 47141  53.0548 297.9430 0001249 110.4725 249.6398 15.06390724 37945
STARLINK-1855           
1 47142U 20088W   21209.46814250  .00574443  00000-0  26166-2 0  9990
2 47142  53.0556 296.4336 0008612 277.9642  82.0402 15.81725935 37980
STARLINK-1856           
1 47143U 20088X   21208.54207875  .00006148  00000-0  43158-3 0  9991
2 47143  53.0528 301.0232 0001319 121.7791 238.3327 15.06372056 38124
STARLINK-1857           
1 47144U 20088Y   21209.45711186  .00000865  00000-0  76976-4 0  9993
2 47144  53.0555 286.9132 0000947 118.9743 241.1341 15.06386186 38112
STARLINK-1858           
1 47145U 20088Z   21209.44973046 -.00001199  00000-0 -61497-4 0  9993
2 47145  53.0517 286.9547 0006307 222.2095 137.8409 15.06384798 38119
STARLINK-1859           
1 47146U 20088AA  21209.28015791  .00001125  00000-0  94383-4 0  9997
2 47146  53.0565 317.7100 0001196 117.0999 243.0112 15.06398971 37664
STARLINK-1860           
1 47147U 20088AB  21209.28202629 -.00000947  00000-0 -44692-4 0  9997
2 47147  53.0573 307.7093 0000954 128.8648 231.2426 15.06391849 37817
STARLINK-1861           
1 47148U 20088AC  21209.45618842  .00000910  00000-0  79965-4 0  9994
2 47148  53.0544 296.9128 0001087 113.9294 246.1809 15.06394460 37973
STARLINK-1862           
1 47149U 20088AD  21208.68860529  .00001076  00000-0  91136-4 0  9998
2 47149  53.0567 310.3736 0001033 114.0645 246.0452 15.06387665 38454
STARLINK-1863           
1 47150U 20088AE  21208.54944006 -.00000761  00000-0 -32208-4 0  9995
2 47150  53.0564 301.0013 0001076 104.5055 255.6054 15.06396393 38096
STARLINK-1864           
1 47151U 20088AF  21209.21199853  .00001079  00000-0  91327-4 0  9991
2 47151  53.0559 308.0177 0000642 107.9400 252.1659 15.06395339 37796
STARLINK-1866           
1 47152U 20088AG  21209.46263806 -.00000736  00000-0 -30554-4 0  9995
2 47152  53.0551 306.9074 0000941 121.9414 238.1667 15.06392542 37836
STARLINK-1867           
1 47153U 20088AH  21209.30457719 -.00001494  00000-0 -81475-4 0  9997
2 47153  53.0567 312.6076 0000920 132.9798 227.1268 15.06388177 37748
STARLINK-1868           
1 47154U 20088AJ  21209.23501656 -.00003412  00000-0 -21027-3 0  9998
2 47154  53.0562 297.9285 0001252 108.5250 251.5875 15.06395770 37946
STARLINK-1869           
1 47155U 20088AK  21209.46908720 -.00000512  00000-0 -15522-4 0  9999
2 47155  53.0544 316.8781 0001205 115.3168 244.7946 15.06393856 37699
STARLINK-1870           
1 47156U 20088AL  21209.28533740  .00006054  00000-0  19505-3 0  9995
2 47156  53.0536 264.3708 0000163 306.4482  53.6504 15.33580337 38422
STARLINK-1871           
1 47157U 20088AM  21209.30783761 -.00000301  00000-0 -13319-5 0  9999
2 47157  53.0560 307.6007 0000998 118.6673 241.4416 15.06389756 37817
STARLINK-1873           
1 47158U 20088AN  21209.46354295 -.00004705  00000-0 -29722-3 0  9998
2 47158  53.0527 296.8814 0000887  93.2002 266.9089 15.06392832 37971
STARLINK-1874           
1 47159U 20088AP  21209.45895467  .00001545  00000-0  12266-3 0  9991
2 47159  53.0556 306.9265 0001182 129.0561 231.0533 15.06374690 37838
STARLINK-1875           
1 47160U 20088AQ  21209.23509259  .00205949  00000-0  12611-1 0  9996
2 47160  53.0550 297.8840 0000690 289.4289  70.6627 15.08765908 37943
STARLINK-1876           
1 47161U 20088AR  21209.23134710 -.00000428  00000-0 -98497-5 0  9990
2 47161  53.0546 297.9369 0001003 117.2085 242.9006 15.06388359 37941
STARLINK-1877           
1 47162U 20088AS  21209.29308477 -.00000357  00000-0 -51069-5 0  9995
2 47162  53.0559 307.6475 0001120 127.4124 232.6967 15.06393545 37811
STARLINK-1878           
1 47163U 20088AT  21209.31333629  .00002282  00000-0  17203-3 0  9993
2 47163  53.0553 317.5733 0001172 122.9537 237.1565 15.06399037 37678
STARLINK-1879           
1 47164U 20088AU  21209.24700582  .00001135  00000-0  95058-4 0  9993
2 47164  53.0555 287.8521 0001089 112.3512 247.7593 15.06395803 38089
STARLINK-1880           
1 47165U 20088AV  21209.45158260 -.00000642  00000-0 -24196-4 0  9996
2 47165  53.0546 306.9558 0001149 127.3586 232.7508 15.06391843 37839
STARLINK-1881           
1 47166U 20088AW  21209.20760502  .00010508  00000-0  39510-3 0  9993
2 47166  53.0495 285.7196 0001275  67.6473 292.4661 15.27715065 38110
STARLINK-1884           
1 47167U 20088AX  21208.57433709 -.00000813  00000-0 -35489-4 0  9991
2 47167  53.0562 310.8962 0007874  55.6374 304.5358 15.06386556 37703
STARLINK-1885           
1 47168U 20088AY  21208.57063724  .00001254  00000-0  10304-3 0  9994
2 47168  53.0549 310.9103 0000789 137.9922 222.1128 15.06393687 37701
STARLINK-1886           
1 47169U 20088AZ  21209.23088600  .00000950  00000-0  82748-4 0  9993
2 47169  53.0981 282.7158 0006673 330.2962  29.7648 15.06399009 38161
STARLINK-1887           
1 47170U 20088BA  21208.69226566 -.00004785  00000-0 -30268-3 0  9990
2 47170  53.0573 310.3567 0001106 132.2354 227.8729 15.06389050 37720
STARLINK-1888           
1 47171U 20088BB  21208.57895524  .00001847  00000-0  14290-3 0  9995
2 47171  53.0560 300.8605 0001003 109.2909 250.8188 15.06380762 37849
STARLINK-1889           
1 47172U 20088BC  21208.71850999 -.00000947  00000-0 -44687-4 0  9995
2 47172  53.0503 315.2370 0001837 149.2702 210.8395 15.06392898 37654
STARLINK-1890           
1 47173U 20088BD  21209.30319280  .00000393  00000-0  45275-4 0  9992
2 47173  53.0554 307.6157 0000902 118.8096 241.2984 15.06396660 37810
STARLINK-1891           
1 47174U 20088BE  21208.58169731  .00001309  00000-0  10678-3 0  9992
2 47174  53.0556 310.8577 0001186 122.6408 237.4695 15.06390820 37997
STARLINK-1895           
1 47175U 20088BF  21209.04428099 -.00000365  00000-0 -56132-5 0  9990
2 47175  53.0554 288.7606 0001059 109.8052 250.3051 15.06393662 38058
STARLINK-1907           
1 47177U 20088BH  21209.29399450 -.00001996  00000-0 -11516-3 0  9993
2 47177  53.0554 297.6634 0001552 103.4132 256.7030 15.06392667 37956
